NORAD_CAT_ID,OBJECT_NAME,OBJECT_TYPE,EPOCH,MEAN_MOTION,ECCENTRICITY,INCLINATION,RA_OF_ASC_NODE,ARG_OF_PERICENTER,MEAN_ANOMALY,BSTAR,MEAN_MOTION_DOT,MEAN_MOTION_DDOT,TLE_LINE0,TLE_LINE1,TLE_LINE2,SEMIMAJOR_AXIS,PERIOD,APOGEE,PERIGEE,DECAYED
53639.0,STARLINK-4422,PAYLOAD,2023-01-28 02:41:04,15.0883915,0.0001361,53.2169,286.197,81.4238,278.6908,9.5206e-05,1.228e-05,0.0,0 STARLINK-4422,1 53639U 22104BD  23028.11185616  .00001228  00000-0  95206-4 0  9998,2 53639  53.2169 286.1970 0001361  81.4238 278.6908 15.08839150 23627,6917.883000000001,95.438,540.69,538.806,0.0
53639.0,STARLINK-4422,PAYLOAD,2023-01-28 16:59:33,15.08831302,0.0001362,53.2157,283.5233,73.0824,287.0317,-6.0644e-05,-1.253e-05,0.0,0 STARLINK-4422,1 53639U 22104BD  23028.70802303 -.00001253  00000-0 -60644-4 0  9990,2 53639  53.2157 283.5233 0001362  73.0824 287.0317 15.08831302 23715,6917.907,95.438,540.714,538.83,0.0
53639.0,STARLINK-4422,PAYLOAD,2023-01-28 20:10:19,15.08826151,0.0001318,53.2167,282.9265,87.8294,272.2849,-0.0001465,-2.618e-05,0.0,0 STARLINK-4422,1 53639U 22104BD  23028.84050413 -.00002618  00000-0 -14650-3 0  9993,2 53639  53.2167 282.9265 0001318  87.8294 272.2849 15.08826151 24587,6917.923,95.438,540.7,538.876,0.0
53639.0,STARLINK-4422,PAYLOAD,2023-01-29 02:31:52,15.08826783,0.00014,53.216,281.7372,80.9969,279.1182,-0.00012611,-2.294e-05,0.0,0 STARLINK-4422,1 53639U 22104BD  23029.10547065 -.00002294  00000-0 -12611-3 0  9992,2 53639  53.2160 281.7372 0001400  80.9969 279.1182 15.08826783 23778,6917.921,95.438,540.754,538.817,0.0
53639.0,STARLINK-4422,PAYLOAD,2023-01-29 16:50:20,15.08843253,0.0001529,53.2164,279.0629,76.2614,283.8549,0.00028079,4.184e-05,0.0,0 STARLINK-4422,1 53639U 22104BD  23029.70162811  .00004184  00000-0  28079-3 0  9993,2 53639  53.2164 279.0629 0001529  76.2614 283.8549 15.08843253 23864,6917.87,95.437,540.793,538.678,0.0
53639.0,STARLINK-4422,PAYLOAD,2023-01-29 20:01:07,15.08844869,0.0001558,53.2163,278.468,76.7879,283.3287,0.0004084,6.219e-05,0.0,0 STARLINK-4422,1 53639U 22104BD  23029.83410944  .00006219  00000-0  40840-3 0  9991,2 53639  53.2163 278.4680 0001558  76.7879 283.3287 15.08844869 24738,6917.866,95.437,540.808,538.653,0.0
53639.0,STARLINK-4422,PAYLOAD,2023-01-30 02:22:39,15.08854598,0.0001615,53.2163,277.2781,78.5058,281.6116,0.000771,0.00012009,0.0,0 STARLINK-4422,1 53639U 22104BD  23030.09906884  .00012009  00000-0  77100-3 0  9997,2 53639  53.2163 277.2781 0001615  78.5058 281.6116 15.08854598 24776,6917.836,95.437,540.818,538.584,0.0
53639.0,STARLINK-4422,PAYLOAD,2023-01-30 21:27:16,15.08855837,0.000162,53.2162,273.7097,79.7541,280.3634,0.00029532,4.417e-05,0.0,0 STARLINK-4422,1 53639U 22104BD  23030.89394281  .00004417  00000-0  29532-3 0  9997,2 53639  53.2162 273.7097 0001620  79.7541 280.3634 15.08855837 24893,6917.832,95.437,540.818,538.576,0.0
53639.0,STARLINK-4422,PAYLOAD,2023-01-31 02:13:25,15.08863333,0.0001598,53.2163,272.8173,80.5341,279.5831,0.00048425,7.432e-05,0.0,0 STARLINK-4422,1 53639U 22104BD  23031.09265880  .00007432  00000-0  48425-3 0  9994,2 53639  53.2163 272.8173 0001598  80.5341 279.5831 15.08863333 24070,6917.809,95.436,540.78,538.569,0.0
53639.0,STARLINK-4422,PAYLOAD,2023-01-31 16:31:53,15.08850274,0.0001615,53.2159,270.1408,90.9203,269.1974,8.2275e-05,1.022e-05,0.0,0 STARLINK-4422,1 53639U 22104BD  23031.68881690  .00001022  00000-0  82275-4 0  9993,2 53639  53.2159 270.1408 0001615  90.9203 269.1974 15.08850274 24162,6917.849,95.437,540.831,538.597,0.0
53639.0,STARLINK-4422,PAYLOAD,2023-01-31 22:53:26,15.08855596,0.0001634,53.2157,268.9515,90.8875,269.2304,0.0001577,2.224e-05,0.0,0 STARLINK-4422,1 53639U 22104BD  23031.95377405  .00002224  00000-0  15770-3 0  9997,2 53639  53.2157 268.9515 0001634  90.8875 269.2304 15.08855596 25058,6917.833,95.437,540.828,538.567,0.0
53639.0,STARLINK-4422,PAYLOAD,2023-02-01 02:04:12,15.08856261,0.0001571,53.216,268.3565,89.2578,270.8594,0.00018033,2.584e-05,0.0,0 STARLINK-4422,1 53639U 22104BD  23032.08625279  .00002584  00000-0  18033-3 0  9991,2 53639  53.2160 268.3565 0001571  89.2578 270.8594 15.08856261 25074,6917.831,95.437,540.782,538.609,0.0
53639.0,STARLINK-4422,PAYLOAD,2023-02-02 22:35:00,15.08841915,0.0001558,53.2156,260.0302,85.9917,274.1253,0.00022767,3.337e-05,0.0,0 STARLINK-4422,1 53639U 22104BD  23033.94097811  .00003337  00000-0  22767-3 0  9998,2 53639  53.2156 260.0302 0001558  85.9917 274.1253 15.08841915 24508,6917.875,95.437,540.817,538.662,0.0
53639.0,STARLINK-4422,PAYLOAD,2023-02-03 14:28:52,15.08839474,0.0001548,53.2151,257.0568,84.9054,275.2115,0.00012847,1.757e-05,0.0,0 STARLINK-4422,1 53639U 22104BD  23034.60338114  .00001757  00000-0  12847-3 0  9998,2 53639  53.2151 257.0568 0001548  84.9054 275.2115 15.08839474 25454,6917.882,95.438,540.818,538.676,0.0
53639.0,STARLINK-4422,PAYLOAD,2023-02-04 14:19:39,15.08843768,0.0001479,53.2157,252.5971,84.8648,275.2513,0.00012966,1.776e-05,0.0,0 STARLINK-4422,1 53639U 22104BD  23035.59698079  .00001776  00000-0  12966-3 0  9999,2 53639  53.2157 252.5971 0001479  84.8648 275.2513 15.08843768 25609,6917.869,95.437,540.757,538.711,0.0
53639.0,STARLINK-4422,PAYLOAD,2023-02-04 20:41:11,15.08844693,0.0001502,53.2155,251.4073,86.5127,273.6036,0.00012543,1.709e-05,0.0,0 STARLINK-4422,1 53639U 22104BD  23035.86193971  .00001709  00000-0  12543-3 0  9997,2 53639  53.2155 251.4073 0001502  86.5127 273.6036 15.08844693 24795,6917.866,95.437,540.77,538.692,0.0
53639.0,STARLINK-4422,PAYLOAD,2023-02-05 12:35:03,15.08837152,0.0001496,53.2152,248.4334,86.0352,274.0811,7.9381e-05,9.76e-06,0.0,0 STARLINK-4422,1 53639U 22104BD  23036.52434427  .00000976  00000-0  79381-4 0  9994,2 53639  53.2152 248.4334 0001496  86.0352 274.0811 15.08837152 24894,6917.889,95.438,540.789,538.719,0.0
53639.0,STARLINK-4422,PAYLOAD,2023-02-05 20:31:58,15.08839296,0.0001455,53.2167,246.9461,89.2696,270.8462,6.5814e-05,7.6e-06,0.0,0 STARLINK-4422,1 53639U 22104BD  23036.85554275  .00000760  00000-0  65814-4 0  9991,2 53639  53.2167 246.9461 0001455  89.2696 270.8462 15.08839296 25792,6917.883,95.438,540.754,538.741,0.0
53639.0,STARLINK-4422,PAYLOAD,2023-02-06 09:15:03,15.08841972,0.0001426,53.2164,244.5672,87.9759,272.1396,6.3308e-05,7.2e-06,0.0,0 STARLINK-4422,1 53639U 22104BD  23037.38546175  .00000720  00000-0  63308-4 0  9992,2 53639  53.2164 244.5672 0001426  87.9759 272.1396 15.08841972 25874,6917.874,95.437,540.726,538.753,0.0
53639.0,STARLINK-4422,PAYLOAD,2023-02-06 20:22:45,15.08845599,0.0001394,53.2162,242.4853,88.0095,272.1057,8.3151e-05,1.036e-05,0.0,0 STARLINK-4422,1 53639U 22104BD  23037.84913848  .00001036  00000-0  83151-4 0  9997,2 53639  53.2162 242.4853 0001394  88.0095 272.1057 15.08845599 25096,6917.863,95.437,540.693,538.764,0.0
53639.0,STARLINK-4422,PAYLOAD,2023-02-07 05:55:04,15.08843039,0.000138,53.2162,240.7009,87.1443,272.9707,6.3196e-05,7.18e-06,0.0,0 STARLINK-4422,1 53639U 22104BD  23038.24658022  .00000718  00000-0  63196-4 0  9995,2 53639  53.2162 240.7009 0001380  87.1443 272.9707 15.08843039 26001,6917.871,95.437,540.691,538.781,0.0
53639.0,STARLINK-4422,PAYLOAD,2023-02-07 20:13:32,15.08841526,0.0001326,53.2162,238.0251,87.2524,272.862,9.9142e-05,1.29e-05,0.0,0 STARLINK-4422,1 53639U 22104BD  23038.84274099  .00001290  00000-0  99142-4 0  9995,2 53639  53.2162 238.0251 0001326  87.2524 272.8620 15.08841526 25248,6917.876,95.437,540.658,538.823,0.0
53639.0,STARLINK-4422,PAYLOAD,2023-02-08 05:45:51,15.0883923,0.0001443,53.2172,236.2393,84.2966,275.8191,4.9146e-05,4.94e-06,0.0,0 STARLINK-4422,1 53639U 22104BD  23039.24018392  .00000494  00000-0  49146-4 0  9996,2 53639  53.2172 236.2393 0001443  84.2966 275.8191 15.08839230 26159,6917.883,95.438,540.746,538.749,0.0
53639.0,STARLINK-4422,PAYLOAD,2023-02-08 18:28:57,15.08834912,0.0001199,53.2167,233.8612,101.2106,258.9021,5.9861e-06,-1.93e-06,0.0,0 STARLINK-4422,1 53639U 22104BD  23039.77010751 -.00000193  00000-0  59861-5 0  9998,2 53639  53.2167 233.8612 0001199 101.2106 258.9021 15.08834912 25384,6917.896,95.438,540.59,538.931,0.0
53639.0,STARLINK-4422,PAYLOAD,2023-02-09 05:36:39,15.08840434,0.0001308,53.2173,231.7798,91.5753,268.5389,-2.3894e-05,-6.68e-06,0.0,0 STARLINK-4422,1 53639U 22104BD  23040.23378617 -.00000668  00000-0 -23894-4 0  9993,2 53639  53.2173 231.7798 0001308  91.5753 268.5389 15.08840434 26307,6917.879,95.438,540.649,538.839,0.0
53639.0,STARLINK-4422,PAYLOAD,2023-02-09 19:55:07,15.08844686,0.0001071,53.2158,229.1052,97.0637,263.0477,2.5602e-05,1.2e-06,0.0,0 STARLINK-4422,1 53639U 22104BD  23040.82994385  .00000120  00000-0  25602-4 0  9994,2 53639  53.2158 229.1052 0001071  97.0637 263.0477 15.08844686 26393,6917.866,95.437,540.472,538.99,0.0
53639.0,STARLINK-4422,PAYLOAD,2023-02-09 23:05:52,15.08851043,0.0001152,53.2163,228.5083,98.8986,261.2137,5.4352e-05,5.78e-06,0.0,0 STARLINK-4422,1 53639U 22104BD  23040.96241859  .00000578  00000-0  54352-4 0  9991,2 53639  53.2163 228.5083 0001152  98.8986 261.2137 15.08851043 25568,6917.847,95.437,540.509,538.915,0.0
53639.0,STARLINK-4422,PAYLOAD,2023-02-10 14:59:45,15.08836597,0.0001037,53.2164,225.5353,86.7076,273.4034,0.00012603,1.718e-05,0.0,0 STARLINK-4422,1 53639U 22104BD  23041.62482841  .00001718  00000-0  12603-3 0  9992,2 53639  53.2164 225.5353 0001037  86.7076 273.4034 15.08836597 25663,6917.891,95.438,540.473,539.038,0.0
53639.0,STARLINK-4422,PAYLOAD,2023-02-10 16:35:08,15.08840162,0.0001068,53.2166,225.2377,85.6135,274.4979,0.00016256,2.3e-05,0.0,0 STARLINK-4422,1 53639U 22104BD  23041.69106626  .00002300  00000-0  16256-3 0  9999,2 53639  53.2166 225.2377 0001068  85.6135 274.4979 15.08840162 26524,6917.88,95.438,540.484,539.006,0.0
53639.0,STARLINK-4422,PAYLOAD,2023-02-11 05:18:13,15.08839764,0.0001107,53.2157,222.8587,86.8205,273.2914,9.7431e-05,1.263e-05,0.0,0 STARLINK-4422,1 53639U 22104BD  23042.22098654  .00001263  00000-0  97431-4 0  9992,2 53639  53.2157 222.8587 0001107  86.8205 273.2914 15.08839764 26606,6917.881,95.438,540.512,538.98,0.0
